{"type":"FeatureCollection","features":[{"type":"Feature","properties":{"name":"AER_COATZA / MINA_08","description":"","distrito":"COATZA_MINA"},"geometry":{"type":"Polygon","coordinates":[[[-94.61171288464382,18.02530994944616],[-94.61200807386827,18.02553576338275],[-94.61249936245011,18.02502161513663],[-94.6124589051961,18.02485622755452],[-94.61243140906033,18.02462599198415],[-94.6129074160229,18.02468431915612],[-94.61285655726627,18.02491006551771],[-94.61358072142463,18.02512649617623],[-94.61382056588748,18.02460960536181],[-94.61427118718643,18.02459667201936],[-94.61440368385009,18.02403247842853],[-94.6145357255408,18.02352995547768],[-94.61496209756095,18.02361689034695],[-94.61504068530253,18.02323747121371],[-94.61512896210118,18.02292179233771],[-94.61449561005834,18.02272158684167],[-94.61479973677284,18.02236365897697],[-94.61501479348722,18.02216656681504],[-94.61509167944916,18.02208666477719],[-94.61483545340191,18.02191304994586],[-94.61543224841088,18.02135401666706],[-94.6153607647281,18.0212825146164],[-94.61475921804065,18.02110994415592],[-94.61395987604651,18.02096141913445],[-94.61399521442148,18.02072298755533],[-94.61253234885932,18.02053664279184],[-94.61189342154563,18.02043918938119],[-94.61141254104275,18.02040599753994],[-94.61132891678302,18.02079593107399],[-94.61113422403811,18.02083521932238],[-94.61102127207016,18.02036678929074],[-94.6103541716233,18.02033960176464],[-94.60964269382396,18.02022675418348],[-94.60917903985984,18.02202963654926],[-94.60983561128923,18.02218668355079],[-94.60977587063464,18.02245640374581],[-94.60931213605544,18.02247620958726],[-94.60856437394813,18.02380746770968],[-94.60844622591272,18.02408025384502],[-94.60803044884668,18.02430464466591],[-94.60746055503617,18.02442027831091],[-94.60687327703528,18.02462706497755],[-94.60593025502823,18.02300334537204],[-94.60555778700488,18.02270502220573],[-94.60501175197531,18.02290084079002],[-94.60488913810337,18.02381201851807],[-94.60477071587722,18.0243765339282],[-94.60494691770377,18.02488210407211],[-94.6045468032865,18.02495932336791],[-94.60468604863317,18.02434147212392],[-94.60421201641547,18.02431981890833],[-94.60377559013777,18.02414699489422],[-94.60372845382388,18.02380033894463],[-94.60384024637376,18.02314542854871],[-94.60323007291781,18.02316482732174],[-94.6031918933187,18.02696617373898],[-94.60411519085704,18.02719941624702],[-94.60521284473245,18.02741752282786],[-94.60561513154508,18.02781581881519],[-94.60591260716335,18.02814458976733],[-94.60685095233829,18.02768897833465],[-94.60770098388716,18.02748735188806],[-94.60967274929068,18.02684118886056],[-94.61142666953569,18.02554525574855],[-94.61171288464382,18.02530994944616]]]}},{"type":"Feature","properties":{"name":"AER_COATZA / MINA_01","description":"Unknown Area Type","distrito":"COATZA_MINA"},"geometry":{"type":"Polygon","coordinates":[[[-94.68006309315301,18.01134903201187],[-94.67822328743952,18.01005887809811],[-94.67653033377184,18.0093415214538],[-94.67510370272534,18.00938324559644],[-94.67332589067728,18.01041220006947],[-94.6718002294596,18.01236404623727],[-94.67090763248108,18.01359361538996],[-94.67151017999998,18.01398422],[-94.67451528,18.0151041],[-94.67557225,18.01642544],[-94.67574545,18.01765593],[-94.67531426032347,18.01891690658125],[-94.67405061921887,18.01914144334411],[-94.67330099048688,18.01947728239913],[-94.67339869610586,18.02004258029131],[-94.67214508419642,18.02086558176691],[-94.67100078000001,18.02185173],[-94.67108153,18.02490435],[-94.67153289999999,18.02641264],[-94.67157749,18.02705278],[-94.67132438,18.02768037],[-94.67171129,18.02897328],[-94.67312698,18.03059336],[-94.67312035,18.03073493],[-94.67312852,18.03215381],[-94.67297634,18.03221832],[-94.67269339,18.03348312],[-94.67389915,18.03481079],[-94.67624181472766,18.03443796674029],[-94.67576364850942,18.03148731557597],[-94.67803349737915,18.02968369298681],[-94.68068581,18.03162157],[-94.6820919,18.03345409],[-94.68404696,18.03311098],[-94.68327315820923,18.03041010018547],[-94.6839131497706,18.02903739963477],[-94.68533944214737,18.0286429742647],[-94.68614974,18.02639114],[-94.68551618,18.02558436],[-94.68386758956197,18.0252335780202],[-94.68431108698226,18.0243534401633],[-94.68388640390833,18.01803079905753],[-94.68622331134662,18.01597167729355],[-94.68558251155449,18.01544927377146],[-94.67963769449813,18.01500367987786],[-94.68197092251368,18.01261359646954],[-94.68006309315301,18.01134903201187]]]}},{"type":"Feature","properties":{"name":"AER_COATZA  MINA_01 OTEPAN","description":"Unknown Area Type","distrito":"COATZA_MINA"},"geometry":{"type":"Polygon","coordinates":[[[-94.67632376677919,18.00044776833325],[-94.67657206074536,17.99986700618189],[-94.67702512378015,17.99948219423862],[-94.6772492251872,17.99949866789576],[-94.67795996692661,17.99849838692452],[-94.67745177540259,17.99798902265827],[-94.67830633704556,17.99721158527212],[-94.6778020019355,17.99667359768204],[-94.67741742524598,17.99618531552766],[-94.67746555068224,17.99554076418121],[-94.67682334538891,17.99528824430262],[-94.67663083441437,17.99526144382659],[-94.67659132188146,17.99486772337844],[-94.67612031500326,17.99481653901051],[-94.67598590899408,17.9954326522754],[-94.6757806232002,17.99533737079933],[-94.6755754472959,17.99520741192863],[-94.67487672028776,17.9936547086176],[-94.67558020543437,17.99157576441678],[-94.67693613638167,17.99197687793876],[-94.67703573080186,17.9903590754516],[-94.67524870190215,17.98868775528875],[-94.67560150400274,17.98748130891309],[-94.67446291539714,17.98711263561382],[-94.6734391622302,17.98694899534227],[-94.67190517111513,17.9877208372154],[-94.67187293911462,17.98776038200756],[-94.67130190993223,17.98906336159943],[-94.67112265528088,17.98950617778086],[-94.66966387943184,17.98974231545287],[-94.66854647869488,17.98757711668341],[-94.66634243917207,17.988591039638],[-94.6660638212243,17.99002760273969],[-94.66641712410625,17.9910077432344],[-94.66551979617387,17.99189845183055],[-94.66437802799561,17.99223378229318],[-94.66347575630205,17.99253407195148],[-94.6624152966836,17.99310355383941],[-94.66219356941184,17.99088079348441],[-94.66185176611698,17.99086129133732],[-94.66121043866971,17.99105183958504],[-94.66030464621689,17.99141430000599],[-94.65257200213564,17.99072750935859],[-94.65222425936062,17.99262654553433],[-94.6511438514399,17.99262843220228],[-94.65105794565017,17.99318877243014],[-94.65155150058567,17.99358235902472],[-94.65209758890815,17.99362614091806],[-94.65205518312285,17.99392636470218],[-94.65183139303869,17.9953570234208],[-94.64974087883182,17.99574316415168],[-94.64998748190568,17.99491745681659],[-94.64807893359816,17.99525991163597],[-94.64833428579522,17.99625571046362],[-94.64899035440014,17.9976226828441],[-94.65083307233348,17.99711689328458],[-94.65076037649118,17.99751201150728],[-94.65009291853316,17.99993087545348],[-94.65130810926644,18.00115091971896],[-94.65133828530448,18.00245527316171],[-94.6517422801762,18.00290091366494],[-94.65229042539991,18.003856770117],[-94.65333537616388,18.00494087378632],[-94.65432607108988,18.00470861453143],[-94.6569167213622,18.00556271540358],[-94.65643454448688,18.00678462317117],[-94.6572573325357,18.00686137264144],[-94.6577800709407,18.0064072540969],[-94.65890829338093,18.00613848116953],[-94.65927254088504,18.00609815580194],[-94.6590160004946,18.00675018427002],[-94.65896479004803,18.00696610423974],[-94.65988904270067,18.00712148185772],[-94.66042282732245,18.00597849577523],[-94.66060347387668,18.00608727183203],[-94.66083318537447,18.00594866419562],[-94.66142416077307,18.00624363245954],[-94.66000063304293,18.0077491733163],[-94.659602477435,18.00857391116877],[-94.66139792183175,18.00919359301801],[-94.66241948761227,18.00911702828175],[-94.66260916823985,18.00781984972282],[-94.66362908057997,18.00846468809414],[-94.66343074531845,18.00924052982903],[-94.66474060686234,18.01215766551989],[-94.66559519877393,18.01288204892199],[-94.66646271999998,18.01348728],[-94.66773982542942,18.01366972018502],[-94.66780625041875,18.01218340358725],[-94.6675954756576,18.011915332319],[-94.6678515031035,18.01157171224357],[-94.66803454959185,18.0112224714435],[-94.66807496340965,18.00981858898009],[-94.66865729652781,18.00989418566324],[-94.6688487237473,18.01029874406028],[-94.66989350748821,18.0104210558329],[-94.67112828155544,18.01189484996813],[-94.67081347676377,18.01281028414302],[-94.67100850742196,18.01319105092723],[-94.67206674954787,18.01201145568365],[-94.67256169874794,18.01118519509432],[-94.6738284831573,18.00978034901855],[-94.67454502733881,18.00939746676944],[-94.67492227139867,18.00922715897275],[-94.6761986258134,18.00912637149601],[-94.67726636060344,18.0094942324407],[-94.67874708903177,18.01052408618088],[-94.67973287462829,18.01036167368018],[-94.6797809359269,18.00990783588299],[-94.67998709536722,18.00970083997097],[-94.68187545097514,18.0093795113785],[-94.68249138821756,18.0093228109507],[-94.68351710244193,18.00789972600391],[-94.68286181766103,18.00690538570323],[-94.68324661598771,18.00659641520242],[-94.68220487333619,18.00536287550192],[-94.68124581032542,18.00440714308988],[-94.68043057021151,18.00330991247452],[-94.67916046089513,18.00203122334164],[-94.67876969409609,18.00228788438665],[-94.67707483509828,18.00002624109726],[-94.67632376677919,18.00044776833325]]]}},{"type":"Feature","properties":{"name":"DIAZ ORDAZ_5_A","description":"<table><tr><td>Id</td><td><b>542982323</b></td></tr><tr><td>Nombre</td><td><b>DIAZ ORDAZ_5_A</b></td></tr><tr><td>Liberado</td><td><b>True</b></td></tr><tr><td>Fecha tentativa de instalacion</td><td /></tr><tr><td>Observaciones</td><td /></tr><tr><td>Tecnología</td><td><b>XGPON</b></td></tr><tr><td>OLT</td><td /></tr></table>","distrito":"COATZA_MINA"},"geometry":{"type":"MultiPolygon","coordinates":[[[[-94.57774841,17.9746611],[-94.57769731,17.97377062],[-94.57762021,17.97318628],[-94.57776488,17.97314649],[-94.5769303,17.97128387],[-94.57610055,17.9713585],[-94.57608182999999,17.97116458],[-94.5751815,17.97119829],[-94.57522146,17.97239121],[-94.57412203,17.97252703],[-94.57416703,17.97343839],[-94.57339121,17.97365437],[-94.57339526,17.97372605],[-94.57341608,17.97416808],[-94.57400800999999,17.97532114],[-94.57448491000001,17.97509229],[-94.5750224,17.97614321],[-94.57519938,17.97565467],[-94.5764648,17.97556592],[-94.57774228,17.97490658],[-94.57774841,17.9746611]]]]}},{"type":"Feature","properties":{"name":"DIAZ ORDAZ_3_A","description":"<table><tr><td>Id</td><td><b>542948319</b></td></tr><tr><td>Nombre</td><td><b>DIAZ ORDAZ_3_A</b></td></tr><tr><td>Liberado</td><td><b>True</b></td></tr><tr><td>Fecha tentativa de instalacion</td><td /></tr><tr><td>Observaciones</td><td /></tr><tr><td>Tecnología</td><td><b>XGPON</b></td></tr><tr><td>OLT</td><td /></tr></table>","distrito":"COATZA_MINA"},"geometry":{"type":"MultiPolygon","coordinates":[[[[-94.6005554,17.98487256],[-94.60169889,17.98400533],[-94.60259166,17.98390389],[-94.60340964,17.98375971],[-94.60388515999999,17.98342742],[-94.60438498,17.98367664],[-94.60524676,17.98365825],[-94.60588118,17.9832521],[-94.60738269,17.98379213],[-94.6094305,17.98372886],[-94.60921693,17.98477657],[-94.60901798,17.98520803],[-94.60988574000001,17.98542033],[-94.61056997,17.98493576],[-94.61084046,17.98360953],[-94.61191287,17.98373872],[-94.61172364,17.98417717],[-94.61204873,17.98489256],[-94.6128824,17.98529874],[-94.61338223,17.98437563],[-94.61317757999998,17.98300473],[-94.61471582999998,17.98322624],[-94.61447116,17.98385685],[-94.61518935,17.98414301],[-94.6154376,17.9834553],[-94.61650024,17.98345061],[-94.61698555,17.98368144],[-94.61759485,17.98367675],[-94.61831652,17.98313277],[-94.61827731,17.98242061],[-94.61908769999998,17.98225906],[-94.62052702,17.98241589],[-94.62078124999998,17.98278972],[-94.62231944,17.9820338],[-94.62164483999999,17.98086002],[-94.62306605,17.98013562],[-94.62346879,17.98057412],[-94.62398806,17.98035709],[-94.62356818,17.9797659],[-94.6229239,17.97925638],[-94.62299009000002,17.97901811],[-94.62236781,17.97806454],[-94.62200275,17.97766882],[-94.62166149999999,17.9766409],[-94.62166149,17.97664514],[-94.62127424,17.97610265],[-94.62083669000002,17.97585714],[-94.62038835000001,17.97562923],[-94.61965115000001,17.97539218],[-94.6184455,17.97518852],[-94.61815463,17.97518861],[-94.61652815,17.97471176],[-94.61533529,17.97443669],[-94.61427362,17.97410778],[-94.61360147,17.97405279],[-94.61338780999999,17.97415444],[-94.61210451999999,17.97414168],[-94.60910438,17.974256],[-94.60761766000002,17.97431236],[-94.60768412,17.97511764],[-94.60659857,17.97577596],[-94.6060792,17.97630466],[-94.60577899,17.9765147],[-94.60535231999998,17.97660285],[-94.60492313,17.97718454],[-94.60476358999999,17.9777177],[-94.60529715,17.97812538],[-94.60576513,17.97837018],[-94.60643744000001,17.97891321],[-94.60618024,17.97929167],[-94.60599107,17.97939315],[-94.60579696,17.97973932],[-94.60547181,17.97959777],[-94.60525006,17.98018858],[-94.60414375,17.98017004],[-94.6038963,17.97963467],[-94.6026495,17.97927462],[-94.60243594,17.97992999],[-94.60035476,17.98022778],[-94.59921115,17.98063],[-94.5995217,17.98173154],[-94.59922078,17.98202225],[-94.59832793,17.98210438],[-94.59846376000002,17.98240972],[-94.59880191999999,17.98325644],[-94.59942443,17.98482178],[-94.59984167,17.98505714],[-94.6005554,17.98487256]]]]}},{"type":"Feature","properties":{"name":"DIAZ ORDAZ_4_A","description":"<table><tr><td>Id</td><td><b>542972646</b></td></tr><tr><td>Nombre</td><td><b>DIAZ ORDAZ_4_A</b></td></tr><tr><td>Liberado</td><td><b>True</b></td></tr><tr><td>Fecha tentativa de instalacion</td><td /></tr><tr><td>Observaciones</td><td /></tr><tr><td>Tecnología</td><td><b>XGPON</b><br /><b /></td></tr><tr><td>OLT</td><td /></tr></table>","distrito":"COATZA_MINA"},"geometry":{"type":"MultiPolygon","coordinates":[[[[-94.64194853999999,17.96291988],[-94.64218732,17.96296069],[-94.64250085,17.96285864],[-94.64305756999998,17.96299794],[-94.64386535,17.96281998],[-94.64408832000001,17.96317135],[-94.64492608000002,17.96262425],[-94.64482582,17.96263597],[-94.64555342,17.96242356],[-94.64648338,17.96199277],[-94.64635995,17.96153994],[-94.64585611000001,17.96096566],[-94.64569198,17.95961026],[-94.64607316,17.95943442],[-94.64705443999999,17.95844715],[-94.64722930000002,17.95816333],[-94.64725787,17.95796631],[-94.64891911000001,17.95790911],[-94.6492467,17.95690976],[-94.64984066,17.95700524],[-94.65022802000001,17.95636964],[-94.64863659,17.95549376],[-94.64873302999999,17.95484937],[-94.65034689,17.9540367],[-94.65152304,17.95330751],[-94.65133164,17.95294405],[-94.65041964,17.95156682],[-94.64961705,17.95205812],[-94.64886644,17.95121203],[-94.64774523999999,17.95118352],[-94.64720693000001,17.95084807],[-94.64737053,17.95009662],[-94.64686246,17.95009937],[-94.64635014999999,17.94997948],[-94.64594993,17.94969915],[-94.64607527,17.9494594],[-94.64602517,17.94914717],[-94.64543812999999,17.94884345],[-94.64507891,17.94863925],[-94.64472578,17.94876306],[-94.6446512,17.9486273],[-94.64456049,17.94848053],[-94.64457588000002,17.94831387],[-94.64416557999999,17.94837175],[-94.64415546000001,17.94845033],[-94.64398976,17.94853408],[-94.64386637,17.94844086],[-94.64364485,17.94849954],[-94.64315196000001,17.9483946],[-94.64343096999998,17.94740156],[-94.64268888,17.94713618],[-94.64249851999999,17.94786024],[-94.64174795000001,17.94784788],[-94.64136538000001,17.94673357],[-94.64081345,17.94676219],[-94.6399705,17.94506005],[-94.63979844999999,17.94463877],[-94.63956322,17.94409325],[-94.63936791,17.9438747],[-94.63910116,17.94370792],[-94.6388247,17.9435026],[-94.6387687,17.94346193],[-94.6387391,17.94343593],[-94.63859661999999,17.94339143],[-94.63834052,17.94329324],[-94.63814104,17.94326404],[-94.63790955,17.94372512],[-94.63785894,17.94382209],[-94.63784585,17.94384867],[-94.63783663,17.94390194],[-94.63729445,17.94499175],[-94.63684655,17.94495435],[-94.63661180999999,17.94590039],[-94.63633118,17.94575774],[-94.63635957,17.94545702],[-94.63537485,17.94519039],[-94.63521815,17.94577813],[-94.63538631,17.94584341],[-94.63575788,17.94592004],[-94.63559088,17.94630971],[-94.63598101000001,17.94638603],[-94.63625197,17.94654317],[-94.63631263,17.94675436],[-94.63593749,17.94780095],[-94.63692427,17.94801919],[-94.63672759,17.94852758],[-94.63528697,17.94800001],[-94.63486827,17.94883677],[-94.6353135,17.94909044],[-94.63655016,17.9495641],[-94.63707096,17.94963353],[-94.63859429,17.95185776],[-94.63888586,17.95246488],[-94.63603584,17.95319164],[-94.63534288,17.95240253],[-94.6342801,17.95337447],[-94.6365482,17.95594327],[-94.63741599,17.95636219],[-94.63794459,17.95667057],[-94.63791198,17.95736535],[-94.63852625000001,17.95769577],[-94.63877820999998,17.95750685],[-94.63871713000002,17.95840928],[-94.63969966,17.95903312],[-94.63994402,17.95886594],[-94.64031954000001,17.9593349],[-94.64033428,17.95960936],[-94.64003396999999,17.96008287],[-94.64070882,17.96168754],[-94.64154416,17.96242051],[-94.64191875999998,17.96223326],[-94.64194853999999,17.96291988]]]]}},{"type":"Feature","properties":{"name":"DIAZ ORDAZ_2_A","description":"","distrito":"COATZA_MINA"},"geometry":{"type":"Polygon","coordinates":[[[-94.54194913973384,18.02842787648645],[-94.5488502714718,18.02431700045851],[-94.55000864487496,18.02483807535506],[-94.55403387505962,18.02261787829611],[-94.551927916994,18.02035621245136],[-94.55103085557127,18.0200492436405],[-94.54827087378722,18.0198169368371],[-94.54748175668897,18.01978765321432],[-94.54623327742146,18.02028426608097],[-94.54403210406839,18.02134209698868],[-94.54304466907922,18.02176626919202],[-94.53833543869727,18.02392751928819],[-94.53881644184474,18.02509805651968],[-94.53842975652395,18.02562288076281],[-94.53716016357731,18.02596614793947],[-94.53690327558914,18.02623354224757],[-94.53612145319866,18.02655139852282],[-94.53574028611348,18.02738494762055],[-94.5358136983594,18.0284533403374],[-94.53630697079484,18.02929556056388],[-94.53713064359445,18.02989245699457],[-94.53769336616831,18.02941202568762],[-94.5380449404228,18.02863688259889],[-94.5381350347052,18.02804200539045],[-94.53855928916245,18.02820507562585],[-94.5386833115084,18.02889043112861],[-94.5392425385048,18.028587996621],[-94.53928273930522,18.02890816668704],[-94.53949017266436,18.02926373870564],[-94.53990907836744,18.02926292985615],[-94.54064922411668,18.02903879701782],[-94.54101933997461,18.02871645382162],[-94.54194913973384,18.02842787648645]]]}},{"type":"Feature","properties":{"name":"Ampliacion dias ordas 5","description":"","distrito":"COATZA_MINA"},"geometry":{"type":"Polygon","coordinates":[[[-94.5934779974558,17.99907454501692],[-94.59403221522243,17.99909412693722],[-94.59450525583287,17.99894426779202],[-94.59454593712555,17.99880894790798],[-94.59451868991488,17.99764184373459],[-94.59449360760534,17.99758150159813],[-94.59366708692181,17.99757078374839],[-94.59366603220083,17.99684970134953],[-94.59342985289192,17.9968377134721],[-94.59343292712285,17.99757140733261],[-94.59305554091182,17.99755519936169],[-94.5934779974558,17.99907454501692]]]}},{"type":"Feature","properties":{"name":"Ampliacion dias ordas 6","description":"","distrito":"COATZA_MINA"},"geometry":{"type":"Polygon","coordinates":[[[-94.60188806381231,17.97668107977261],[-94.60213624534536,17.97653129024137],[-94.60172481565367,17.97543948059748],[-94.60198365792188,17.97524870962185],[-94.60223311107234,17.97479877561604],[-94.6022485164615,17.97438926104939],[-94.60271745822368,17.97401484584495],[-94.60218692317044,17.97335560576954],[-94.60145517495361,17.9730577272168],[-94.60136929505319,17.97371903537421],[-94.60103525368265,17.97412844814494],[-94.60072518491174,17.9741756339108],[-94.59871476462415,17.97481612714717],[-94.59995752111266,17.97861535025309],[-94.60173029691893,17.97809002902107],[-94.60188806381231,17.97668107977261]]]}},{"type":"Feature","properties":{"name":"AMPLIACION DIAZ ORDAZ 4","description":"","distrito":"COATZA_MINA"},"geometry":{"type":"Polygon","coordinates":[[[-94.57073311641618,18.01679982231456],[-94.56991387494476,18.0171130863972],[-94.56978957536263,18.01779646244738],[-94.57034722996079,18.01866158180715],[-94.57061655490762,18.01855864949571],[-94.57132246093084,18.02024164924271],[-94.57234047449273,18.01981682028488],[-94.57264261351878,18.0204059674895],[-94.5719182307379,18.02091314069267],[-94.57332011717327,18.02205607567703],[-94.5741280650002,18.02227149243445],[-94.57677737801204,18.02147731738554],[-94.57749980951249,18.02289834265081],[-94.57970361339983,18.02224724883015],[-94.57976120346746,18.02139135981506],[-94.58113717794616,18.02073154450777],[-94.58170468725572,18.02106673708838],[-94.58292176136462,18.02177148521335],[-94.58354364748244,18.02171848717273],[-94.58356173600765,18.02211250443597],[-94.58455981467321,18.02231902456593],[-94.58466687451164,18.02196596210852],[-94.58629935280094,18.02255716142566],[-94.58718961176928,18.02193409255832],[-94.58535566184841,18.0203913639154],[-94.58377340600173,18.01906801698923],[-94.58276518338475,18.01820444408051],[-94.58298133476062,18.01767037084278],[-94.5831964339093,18.01741715841646],[-94.58352105551319,18.01657984444409],[-94.58704298961432,18.01716343122624],[-94.58741128714885,18.01487223745742],[-94.58927084491245,18.01486896614932],[-94.5895180924294,18.01303690402555],[-94.58795096323709,18.0124495142989],[-94.5877232549649,18.01147502720294],[-94.58745697952267,18.01068530267988],[-94.58595451066593,18.01062077022251],[-94.58431958513683,18.01046311605577],[-94.5806236064576,18.01209303661879],[-94.57073311641618,18.01679982231456]]]}},{"type":"Feature","properties":{"name":"Ampliacion Diaz Ordaz 3","description":"Ampliacion Diaz Ordaz 3","distrito":"COATZA_MINA"},"geometry":{"type":"Polygon","coordinates":[[[-94.60154016955379,18.00494436098838],[-94.60711119224382,18.00515875590029],[-94.60738627986592,18.00706943473622],[-94.6156977963699,18.00749948672055],[-94.61601601375125,18.00524100947031],[-94.61122085047425,18.00493952614964],[-94.61112891905029,18.00394073679496],[-94.61089987051754,18.00272488679308],[-94.61012286863091,18.00150932968828],[-94.60952894177653,18.00098851446513],[-94.60957347672391,17.9990342722676],[-94.60943562163523,17.99751439327294],[-94.60756333437728,17.99725481340102],[-94.60532483323648,17.99525831120412],[-94.60546143529189,17.99456340169552],[-94.60317794277687,17.99369599441177],[-94.60235650087637,17.99452152283866],[-94.60322489069769,17.9960844797793],[-94.60322592328966,17.9979952643479],[-94.60268073187952,18.00307645046986],[-94.60153945256535,18.00359812531851],[-94.60154016955379,18.00494436098838]]]}},{"type":"Feature","properties":{"name":"AER_COATZA / MINA_09 (Terraplen)","description":"<table><tr><td>CLUSTER</td><td><b>AER_COATZA / MINA_09</b></td></tr><tr><td>CIUDAD</td><td><b>COATZA / MINA</b></td></tr><tr><td>estatus</td><td><b>aereo</b></td></tr></table>","distrito":"COATZA_MINA"},"geometry":{"type":"MultiPolygon","coordinates":[[[[-94.51671133999999,18.13542092],[-94.51808587999999,18.13505334],[-94.51943117000002,18.13468637],[-94.51970929000001,18.13473023],[-94.52000969,18.13509355],[-94.52548163000002,18.13579121],[-94.52549934,18.13544139],[-94.51975959,18.13366254],[-94.51864023,18.13349282],[-94.51755588,18.13359025],[-94.51676196000001,18.1337284],[-94.51634269999998,18.13386889],[-94.51657087,18.13462001],[-94.51671133999999,18.13542092]]]]}},{"type":"Feature","properties":{"name":"FRANCISCO VILLA_A","description":"<table><tr><td>Id</td><td><b>543002823</b></td></tr><tr><td>Nombre</td><td><b>FRANCISCO VILLA_A</b></td></tr><tr><td>Liberado</td><td><b>True</b></td></tr><tr><td>Fecha tentativa de instalacion</td><td /></tr><tr><td>Observaciones</td><td /></tr><tr><td>Tecnología</td><td><b>XGPON</b></td></tr><tr><td>OLT</td><td /></tr></table>","distrito":"COATZA_MINA"},"geometry":{"type":"MultiPolygon","coordinates":[[[[-94.46990417999999,18.11794025],[-94.46824519,18.11792712],[-94.46827217999999,18.11757849],[-94.46730124,18.11761141],[-94.46731779000001,18.11734602],[-94.46572969,18.11743245],[-94.46572215000002,18.11700476],[-94.46434297999998,18.11708051],[-94.46427072,18.11720267],[-94.46397212,18.11720627],[-94.46371084,18.11730559],[-94.46352276,18.11718828],[-94.46339554,18.1170834],[-94.4634059,18.11701801],[-94.46319927,18.11628919],[-94.46287695999999,18.11618151],[-94.46272837,18.11609407],[-94.4626716,18.11597021],[-94.46264267999999,18.11590344],[-94.46229668000001,18.11558469],[-94.46248275999999,18.11508566],[-94.46260859000002,18.11485684],[-94.46240684999998,18.114231],[-94.46212961,18.11306749],[-94.46205392,18.11267245],[-94.46197948,18.11220296],[-94.46183254999998,18.11185024],[-94.45959985999998,18.11040465],[-94.45973831,18.11015467],[-94.45894589,18.10963578],[-94.45879013999999,18.10986606],[-94.45840306000001,18.1095796],[-94.45743856,18.10896],[-94.45758744000001,18.10873308],[-94.45685019,18.10846991],[-94.45655258,18.10827905],[-94.45634401,18.10833453],[-94.45613379,18.10866945],[-94.45548771,18.10963958],[-94.45554545,18.10970026],[-94.45584333000001,18.10980395],[-94.45600502999999,18.10980371],[-94.45610982,18.10969601],[-94.45612888,18.10965517],[-94.45635633,18.10953298],[-94.45670280000002,18.10972652],[-94.45677525999999,18.10969542],[-94.45712126000001,18.10992555],[-94.45734485,18.11324501],[-94.45740924,18.11481477],[-94.45744987000002,18.11562496],[-94.4576126,18.1182122],[-94.45771695999998,18.11830058],[-94.45963667,18.1195567],[-94.4621503,18.11952436],[-94.46357057,18.1194386],[-94.467187,18.11921169],[-94.46718245,18.11939919],[-94.46997119,18.11933879],[-94.46996651000002,18.11852899],[-94.46989031000001,18.11845994],[-94.46990417999999,18.11794025]]]]}},{"type":"Feature","properties":{"name":"COATZA / MINA 03_PROPUESTO 2","description":"","distrito":"COATZA_MINA"},"geometry":{"type":"Polygon","coordinates":[[[-94.53454878378608,18.15291189995263],[-94.53469453704662,18.15194208877061],[-94.533049383115,18.15178279546926],[-94.53325885633674,18.15024516140388],[-94.53314518760406,18.150241403093],[-94.5328050302749,18.15262828507355],[-94.53295544666672,18.15267347616377],[-94.53454878378608,18.15291189995263]]]}},{"type":"Feature","properties":{"name":"AMPLIACION FRANCISCO VILLA 1_2_A","description":"","distrito":"COATZA_MINA"},"geometry":{"type":"Polygon","coordinates":[[[-94.45128092710812,18.12658880050872],[-94.45244349551045,18.12337934383219],[-94.45333705714555,18.12031979528108],[-94.44804033148475,18.11840925108135],[-94.44781736394123,18.1191343792392],[-94.4468329311166,18.11888444447954],[-94.44609078764945,18.11854497800998],[-94.4459605305729,18.11873416757568],[-94.44532320067223,18.11839833846828],[-94.44468825406196,18.11929389499616],[-94.44870567082762,18.12019662816596],[-94.44826133325388,18.12061193221126],[-94.44787614271937,18.12064633629344],[-94.44758009069378,18.12156833986255],[-94.44667812152852,18.12140304963036],[-94.44647448038513,18.12200040373212],[-94.44822217905771,18.12239612904404],[-94.44823359170718,18.12300008824275],[-94.44836313513578,18.12332112910154],[-94.44817111678536,18.1236447069256],[-94.44667955923858,18.12346708615803],[-94.44555190164188,18.12347696445032],[-94.44475112393394,18.12329896185353],[-94.44499175520004,18.12284648219975],[-94.4442397414314,18.12226302117676],[-94.44341771296719,18.12342148145117],[-94.44274559498088,18.12415379668413],[-94.44260794393222,18.12517806371635],[-94.44125287673697,18.12446056286711],[-94.44017689760841,18.12612141460748],[-94.4405083289981,18.12620880557256],[-94.4410976603951,18.1261428992167],[-94.44261409748083,18.12611357568884],[-94.44479502978784,18.12608696266269],[-94.44655050567323,18.12600468669371],[-94.45128092710812,18.12658880050872]]]}},{"type":"Feature","properties":{"name":"INDEPENDENCIA","description":"","distrito":"COATZA_MINA"},"geometry":{"type":"Polygon","coordinates":[[[-94.47760950307793,18.12346583992279],[-94.47694725296414,18.12261632499773],[-94.4764457289285,18.12206878688264],[-94.47667061879646,18.12196082860634],[-94.47669351325857,18.12157911828985],[-94.47644776481741,18.12112537869001],[-94.47515573914826,18.12121346288221],[-94.47347174030931,18.12121092669762],[-94.4733540764571,18.12260317209667],[-94.46998933091722,18.12273591654181],[-94.46997812665931,18.1194274718414],[-94.4672113413823,18.11943249829613],[-94.46719499752251,18.11923075944625],[-94.46604839297869,18.11926756419565],[-94.45955158109702,18.11949094349026],[-94.45813671082912,18.11854744571559],[-94.45761073756724,18.11831160677862],[-94.45755957384868,18.11892951782731],[-94.45770676998144,18.11944521015703],[-94.45773628023858,18.12065636193605],[-94.45851246815924,18.12119201166952],[-94.45897832905895,18.12146269570936],[-94.45957277385602,18.12188908444182],[-94.46799997891456,18.12172396071388],[-94.46974230652275,18.12170913749404],[-94.46967672071469,18.12331163125307],[-94.47336335419718,18.12331215822612],[-94.47423283247973,18.1236267810953],[-94.47626048681153,18.12351863846549],[-94.47760950307793,18.12346583992279]]]}},{"type":"Feature","properties":{"name":"COATZA_01","description":"<table><tr><td>CLUSTER</td><td><b>COATZA_01</b></td></tr></table>","distrito":"COATZA_MINA"},"geometry":{"type":"MultiPolygon","coordinates":[[[[-94.52054393920355,18.15280115560916],[-94.5243800300852,18.15351002646022],[-94.52447810294402,18.15288850600398],[-94.52666443,18.15326795],[-94.52661242784363,18.15518437951942],[-94.52693597788115,18.15537913996275],[-94.52686483840155,18.15592137553854],[-94.52756490961812,18.15618526878089],[-94.52824628773827,18.15562679502296],[-94.52921547375566,18.15508448144332],[-94.5297275488543,18.15179689581668],[-94.53088966272325,18.15191498424315],[-94.53111870922112,18.15092287243276],[-94.53147747903355,18.15088084510034],[-94.53155486996856,18.15008272031951],[-94.53316476604607,18.15023322201909],[-94.5331885296857,18.14994654132865],[-94.53358623011326,18.14725536684075],[-94.53376137681512,18.14619261941079],[-94.53211099847533,18.14598888666448],[-94.53208906829151,18.14559162340964],[-94.53153820430293,18.14523632810088],[-94.53184101707943,18.14249442424284],[-94.53166154710838,18.14214595255357],[-94.53136523917027,18.14182543790669],[-94.53054494289547,18.14148701391273],[-94.5299269452451,18.14129548997602],[-94.52971935248871,18.14103947933368],[-94.5294777572828,18.14072008029594],[-94.52935046096293,18.14059789063596],[-94.52914719424012,18.14052049423188],[-94.52840564031197,18.14043294379543],[-94.52649288117523,18.14017273306645],[-94.5263949271184,18.14075592066401],[-94.52618740545705,18.14218070911019],[-94.52612253899423,18.14262121878903],[-94.52580746225554,18.14260022285853],[-94.52428612895729,18.14236748413346],[-94.52357296759953,18.14227664647346],[-94.52204563847327,18.1420370694705],[-94.5216157355398,18.14496253514022],[-94.52157209601584,18.14517442695821],[-94.52130989923671,18.14710322553963],[-94.5212993737327,18.14738107114237],[-94.52108573750428,18.1487700967918],[-94.5207733455268,18.15061337929509],[-94.52077888429436,18.15076607190153],[-94.52090600011152,18.15086012619451],[-94.52074472240072,18.15170049189163],[-94.52058959228386,18.15240601247816],[-94.52054393920355,18.15280115560916]]]]}},{"type":"Feature","properties":{"name":"AMPLIACION FRANCISCO VILLA 1","description":"<table><tr><td>Id</td><td><b>535064999</b></td></tr><tr><td>Nombre</td><td><b>AMPLIACION FRANCISCO VILLA 1</b></td></tr><tr><td>Liberado</td><td><b>True</b></td></tr><tr><td>Fecha tentativa de instalacion</td><td /></tr><tr><td>Observaciones</td><td /></tr><tr><td>OLT</td><td /></tr></table>","distrito":"COATZA_MINA"},"geometry":{"type":"MultiPolygon","coordinates":[[[[-94.47470718,18.12631917],[-94.47640825,18.12629836],[-94.47692747,18.12628858],[-94.47928492,18.12626326],[-94.47910583,18.12570765],[-94.47876925,18.12511975],[-94.47862009,18.12484099],[-94.47830335,18.12424419],[-94.47822885,18.12424099],[-94.47806473,18.12394656],[-94.47799523,18.12392842],[-94.47798529,18.12377249],[-94.47791235,18.12377095],[-94.47791493,18.12349847],[-94.47650779,18.12353388],[-94.47472432,18.12358485],[-94.47419729999999,18.12364133],[-94.47351303,18.12333816],[-94.47332469,18.12326665],[-94.46978918999999,18.12334942],[-94.46982505,18.12168365],[-94.46896264,18.12164953],[-94.46880436000001,18.12175425],[-94.46838749,18.12177021],[-94.46793592999998,18.12176335],[-94.46792402,18.12167688],[-94.46707618000002,18.12170648],[-94.46707863,18.1216336],[-94.46561212,18.1217201],[-94.46415614,18.12179303],[-94.46207228,18.1219],[-94.46127937,18.1219205],[-94.46024704999999,18.12193408],[-94.45959407,18.12194318],[-94.45941197999998,18.12210486],[-94.45936577,18.12247746],[-94.45910222,18.12243418],[-94.45767909,18.12186035],[-94.45330599000002,18.12030837],[-94.45307113000001,18.12114278],[-94.45287661,18.12199257],[-94.4524508,18.12331958],[-94.45198072,18.12459334],[-94.45122048,18.12660769],[-94.45241489999998,18.12659034],[-94.46529332,18.12642699],[-94.47017259,18.12635903],[-94.47470718,18.12631917]]]]}},{"type":"Feature","properties":{"name":"AMPLIACION FRANCISCO VILLA 2","description":"","distrito":"COATZA_MINA"},"geometry":{"type":"Polygon","coordinates":[[[-94.43443672793379,18.12503427549109],[-94.43533013950702,18.12124657742769],[-94.43450462386579,18.12101629244908],[-94.43545765606338,18.11633941481553],[-94.43399925671892,18.1159225244317],[-94.43226121020543,18.11560242637677],[-94.43209005802574,18.11603041579089],[-94.43106423847,18.11577277733398],[-94.43035488538948,18.11789210469674],[-94.42966434785417,18.11771270948737],[-94.42945294123176,18.11818796137332],[-94.42828395017092,18.11786858778708],[-94.42820884659,18.11828206694511],[-94.42699175018346,18.11789350870011],[-94.42645155945951,18.11779269008092],[-94.42495390927418,18.11743085105154],[-94.42473034261518,18.11789688848847],[-94.42460828364544,18.11828031562564],[-94.42423390076733,18.11825083359681],[-94.42393464830931,18.11811254938173],[-94.42382022016417,18.118087144144],[-94.42378429511797,18.11828822958311],[-94.42366494526702,18.11863744047391],[-94.42371194810352,18.11890042549057],[-94.42294722150714,18.12022804639906],[-94.42274711991593,18.12031650341044],[-94.42269698068063,18.12052754468102],[-94.4257848177947,18.1218376324376],[-94.43152114097349,18.12433500706527],[-94.43443672793379,18.12503427549109]]]}},{"type":"Feature","properties":{"name":"DISEÑO_TPE-FRANCISCO-VILLA","description":"","distrito":"COATZA_MINA"},"geometry":{"type":"Polygon","coordinates":[[[-94.44806584833654,18.11837776863257],[-94.44704078008093,18.11794765655536],[-94.44771027823978,18.11690330224454],[-94.4498079471494,18.11807397256871],[-94.45096276957666,18.11665547791102],[-94.44862203993732,18.11510656669],[-94.44931830387769,18.11443594827669],[-94.44853064428291,18.11389538529585],[-94.44873594822121,18.11351701235818],[-94.4503178577849,18.11443662003565],[-94.45142398887356,18.11316890872988],[-94.45030616414593,18.11274592317793],[-94.45137300304717,18.11117382955294],[-94.4519581928739,18.11004985112267],[-94.45137911284672,18.10945662228684],[-94.45221297797936,18.1082449611265],[-94.45312182725895,18.10877611466956],[-94.45340399567343,18.10828751534213],[-94.45339968730435,18.10835982422322],[-94.45548771695707,18.10963789048122],[-94.4561846648515,18.10861452951094],[-94.45487044064946,18.10778896120221],[-94.45427708986148,18.10864519558795],[-94.45346386879567,18.10811662595091],[-94.45387785880425,18.10739568577882],[-94.45305747331722,18.10699451049147],[-94.45277363523243,18.10692072474511],[-94.45187800261144,18.10664853827424],[-94.4514981934096,18.10698668018435],[-94.44927072786368,18.10548046512377],[-94.44913067617449,18.10634661191479],[-94.4481074640613,18.10645355231695],[-94.44669729518293,18.10671645937021],[-94.44639852173063,18.1074278724641],[-94.44538708132555,18.10699918747926],[-94.4444022360109,18.10900392696077],[-94.44532625593867,18.10969112595948],[-94.44624859498418,18.11028587337642],[-94.44647526029534,18.10995149660852],[-94.44677686666209,18.11012683441084],[-94.44639376484193,18.11093206115144],[-94.44728428345056,18.11148837636008],[-94.44677562828629,18.11222656924362],[-94.44745171745043,18.11264365788037],[-94.44674668146729,18.11403913247846],[-94.44578498239851,18.11406925156469],[-94.4435256981363,18.11263098571579],[-94.44405127151943,18.11187004697475],[-94.44520989076463,18.11247377029758],[-94.44609297292605,18.11114790582004],[-94.44468846181485,18.11027854265682],[-94.44484942457022,18.1099385729445],[-94.44439673113936,18.10969262139469],[-94.4439115088883,18.11000346434468],[-94.44331391011471,18.110946722837],[-94.4440599234743,18.11149627695424],[-94.4434021566642,18.11252985121536],[-94.44262335449797,18.11144530216864],[-94.44247182872041,18.11183329599007],[-94.44217174194804,18.11214517007203],[-94.44185028204313,18.11204640737159],[-94.44115033448432,18.11232157641659],[-94.44148076240472,18.11315944728894],[-94.44214459067844,18.11284454888299],[-94.44225831042219,18.11241423427694],[-94.44256718585447,18.11293397422787],[-94.44215882180427,18.11315175173414],[-94.44241566627635,18.11332001730718],[-94.44331425214598,18.11277164628571],[-94.44539169265491,18.11402079757586],[-94.44345170705813,18.11452396385353],[-94.44312794325084,18.11396655595595],[-94.44226347207035,18.1137077377239],[-94.44119921072273,18.11416116037368],[-94.44066896750222,18.11419074126558],[-94.43913007185436,18.11444353382295],[-94.43877150496795,18.11521677590729],[-94.43988230182335,18.11548530122072],[-94.44110346672954,18.11521939540926],[-94.4438929797157,18.11461296578405],[-94.44461552407563,18.11579402833493],[-94.44516783427838,18.11489073481592],[-94.44499769707136,18.11477762450926],[-94.44575031574908,18.11456260856125],[-94.44620702194077,18.11522147482954],[-94.4459755290471,18.11535843908927],[-94.44567942844888,18.11552241692366],[-94.44487708879515,18.1167414729084],[-94.44409964750258,18.11635329941787],[-94.4438747824601,18.11694720233588],[-94.44523649598536,18.11744399134989],[-94.44541405648921,18.11752782889669],[-94.44468931568454,18.11842240918],[-94.44435018547402,18.11896817169361],[-94.44257323994916,18.11834416135188],[-94.4398478523229,18.11735850768949],[-94.43978384950864,18.11733931739522],[-94.43640490811896,18.1165993940512],[-94.43544202918368,18.11633108512649],[-94.43457302442694,18.120380005989],[-94.43451123342928,18.12104779492549],[-94.43540047768857,18.12126088273747],[-94.43524576407879,18.12179428119415],[-94.43504677656763,18.12256585649645],[-94.43498263210222,18.12306209651873],[-94.43482446477354,18.1237663210505],[-94.43466417313087,18.12438880198763],[-94.4344590214099,18.12489427227758],[-94.43960351843454,18.12599416474534],[-94.44016243888633,18.12610037112147],[-94.44122515635978,18.12442200891215],[-94.44261402000512,18.12514050183225],[-94.44270793775945,18.12415798388281],[-94.44330907346381,18.12357918484382],[-94.443833655405,18.12280312766812],[-94.44424324884436,18.12224516252305],[-94.4450157239347,18.12283232080133],[-94.44476199540411,18.12332249960614],[-94.44475699742242,18.12410088988565],[-94.44588679168307,18.12394434514108],[-94.44771788756509,18.12371888818988],[-94.44816025145361,18.1236390217182],[-94.44835128209489,18.12336469443749],[-94.44817552838785,18.12297434478159],[-94.44822695566033,18.12242928215369],[-94.44643964406154,18.12200435190944],[-94.44666495402967,18.12137753392286],[-94.44758753355767,18.12154716780394],[-94.44788126009028,18.12061353179085],[-94.44822354422818,18.1206261508976],[-94.44871076420765,18.12015344552054],[-94.44469318946562,18.11923229018337],[-94.44536136629569,18.11835610864775],[-94.44594343936843,18.11874920562638],[-94.44609261262406,18.1185142315502],[-94.44677359172678,18.11883761686745],[-94.4478344853078,18.11913111711103],[-94.44806584833654,18.11837776863257]]]}},{"type":"Feature","properties":{"name":"BRISAS DEL GOLFO","description":"<table><tr><td>Id</td><td><b>535277463</b></td></tr><tr><td>Nombre</td><td><b>BRISAS DEL GOLFO</b></td></tr><tr><td>Liberado</td><td><b>True</b></td></tr><tr><td>Fecha tentativa de instalacion</td><td /></tr><tr><td>Observaciones</td><td /></tr><tr><td>OLT</td><td /></tr></table>","distrito":"COATZA_MINA"},"geometry":{"type":"MultiPolygon","coordinates":[[[[-94.45489849,18.14404494],[-94.45415173,18.14416556],[-94.45551934,18.15159763],[-94.45564863,18.15158654],[-94.45578212,18.15157347],[-94.45695846,18.15137638],[-94.45825257,18.1511506],[-94.45926055,18.15099431],[-94.46057255999999,18.15079842],[-94.46121174,18.15069606],[-94.46172125,18.15061976],[-94.46297013999998,18.15043191],[-94.46447259,18.15029242],[-94.46537652,18.15022146],[-94.46583436,18.15018512],[-94.46617143,18.15001944],[-94.46788853000001,18.15002888],[-94.46884254,18.15011838],[-94.470154,18.15013707],[-94.47092797999998,18.15005895],[-94.47101423999999,18.15021344],[-94.47149623999998,18.15017252],[-94.47153865,18.15000159],[-94.47164050999999,18.15007053],[-94.47198643,18.15004074],[-94.47200801000001,18.15007055],[-94.47343183000001,18.15009483],[-94.47924362240882,18.15007622908853],[-94.47788842870965,18.14352504474956],[-94.47957205644738,18.14378840738605],[-94.48145715462849,18.15036789411339],[-94.48338815999999,18.15044536],[-94.48394076,18.15050867],[-94.48423268,18.15050309],[-94.48458514999999,18.1504938],[-94.48668587999998,18.15057439],[-94.48877307000001,18.15065401],[-94.48925258000001,18.15072469],[-94.48938391,18.15072282],[-94.48974612000002,18.15070113],[-94.49086702,18.15075694],[-94.49299857,18.15086839],[-94.49335375,18.15091144],[-94.49342236,18.15089844],[-94.49349375,18.15086559],[-94.49369558,18.15067],[-94.494209,18.15064021],[-94.49419721999999,18.15059927],[-94.49422858,18.15058991],[-94.49487715,18.1506476],[-94.49488890999999,18.1505936],[-94.49504758,18.15059922],[-94.49514195,18.14947625],[-94.49530502,18.14942788],[-94.49546534000001,18.14941667],[-94.49555917,18.14941671],[-94.49589941,18.14949096],[-94.49747613,18.14972124],[-94.5008278,18.15029334],[-94.50263042,18.15061507],[-94.50306422,18.14833744],[-94.5030799,18.1482371],[-94.50304852000001,18.14813304],[-94.50227899,18.14635223],[-94.501147648009,18.14383811493438],[-94.50220706709433,18.14372075467092],[-94.5027470278798,18.14367204461935],[-94.50344311743343,18.14426281082538],[-94.50408678687677,18.144412009555],[-94.50465844052607,18.14506509230502],[-94.5053508838897,18.14523357649254],[-94.50614271347308,18.14527402346663],[-94.50714392695065,18.14479957151247],[-94.50734326096934,18.14484717353711],[-94.50772979,18.14513969],[-94.50877281,18.14450141],[-94.50891834000001,18.14465168],[-94.50906587,18.14448464],[-94.50966585,18.14449858],[-94.50972615,18.14487289],[-94.50938909,18.14491424],[-94.5094236,18.14512827],[-94.51045068,18.14499514],[-94.51044188,18.14446137],[-94.51195438,18.14445209],[-94.51213840372309,18.1444244880409],[-94.51215769726565,18.14310715715114],[-94.51217022,18.14183401],[-94.51218650000001,18.14121166],[-94.5100707,18.14126851],[-94.51007223,18.14112014],[-94.50846781,18.14113735],[-94.50817627,18.14073392],[-94.50811769,18.1407862],[-94.50796361,18.14056819],[-94.50754055000002,18.13938974],[-94.50736078,18.13885305],[-94.50734024,18.13875646],[-94.50736271000001,18.1386817],[-94.50739954,18.13863902],[-94.50742846000001,18.13860705],[-94.50747982,18.13858265],[-94.50753595,18.13857801],[-94.50757444,18.13858108],[-94.50764365,18.13846332],[-94.50859303,18.13899231],[-94.50948956,18.13946723],[-94.50982426,18.13964329],[-94.50998036999998,18.13971167],[-94.510133,18.13976871],[-94.51033049,18.13980876],[-94.51050374,18.13982994],[-94.51063205000001,18.13983483],[-94.51165088000002,18.13984611],[-94.51270841,18.13985242],[-94.51315361,18.13985236],[-94.51410675999999,18.139862],[-94.51481215000001,18.13986513],[-94.51556437000002,18.13984383],[-94.51635025000002,18.13981926],[-94.51656174,18.13978011],[-94.51667263,18.13977666],[-94.51665885,18.13935619],[-94.51666554,18.13874298],[-94.51664106,18.1363151],[-94.51662037,18.13544484],[-94.51657905,18.13461773],[-94.51630488000002,18.13389907],[-94.51577068,18.13395458],[-94.5152067,18.13396107],[-94.51480668000002,18.13392063],[-94.514515,18.13385449],[-94.51417081,18.13376982],[-94.51380264999999,18.13363753],[-94.51353104,18.13351325],[-94.51316598,18.13331116],[-94.51258229,18.13293039],[-94.51188157,18.1324946],[-94.51155882,18.13233857],[-94.51129165,18.13223622],[-94.51096162,18.132136],[-94.51067959000001,18.13208037],[-94.51042598000001,18.13203775],[-94.51011844,18.13202064],[-94.50973001,18.13203997],[-94.50944716999999,18.13205274],[-94.50896911000001,18.13214029],[-94.50823678,18.13231035],[-94.50785289,18.13234032],[-94.50737477,18.13234889],[-94.50686122,18.13229009],[-94.50651782,18.13221543],[-94.50620575,18.13209174],[-94.50501215,18.13163051],[-94.50334116000002,18.13096616],[-94.50200133000001,18.13044253],[-94.50123352000001,18.13014263],[-94.50017262,18.12973714],[-94.49949691,18.12947906],[-94.4969162,18.12912821],[-94.49663026999998,18.12908508],[-94.49648441,18.12901468],[-94.49638565,18.12897206],[-94.49630479999999,18.1289699],[-94.49621277,18.12899551],[-94.49599729000002,18.12897414],[-94.49587141999999,18.12893314],[-94.49500437000002,18.12883087],[-94.49490785,18.1288735],[-94.49388965,18.12881167],[-94.49373475,18.12885862],[-94.49258081,18.12882065],[-94.49151413,18.12885477],[-94.4914513,18.12873105],[-94.49072087000002,18.12880578],[-94.48951799000001,18.12880153],[-94.48826617,18.12878234],[-94.48717355,18.12879518],[-94.48565364,18.12880997],[-94.48541704,18.12882172],[-94.48457765,18.12882536],[-94.48441827000002,18.12884451],[-94.48414057,18.12889632],[-94.48386224,18.12899445],[-94.48368382,18.12907203],[-94.48338979,18.12927474],[-94.48596889556686,18.13624736909237],[-94.48337668411827,18.13648899825025],[-94.48164508436793,18.13041736873743],[-94.47972736,18.13156895],[-94.47837138,18.13229572],[-94.47808044,18.13225723],[-94.4780086,18.1321249],[-94.47791664,18.13160559],[-94.47754513,18.13076669],[-94.47740733,18.13045303],[-94.47735791,18.1302226],[-94.47722994,18.12998158],[-94.47708309,18.12961316],[-94.47684779,18.12903576],[-94.47621082,18.12742184],[-94.47495119999999,18.12767762],[-94.47473195,18.12674141],[-94.47470958,18.12632112],[-94.47008379,18.12635811],[-94.46143519,18.12647458],[-94.45014118999998,18.12661785],[-94.45128363999999,18.13316691],[-94.45232015,18.1386739],[-94.45273875000001,18.1387966],[-94.45489849,18.14404494]]]]}},{"type":"Feature","properties":{"name":"PETROLERA","description":"","distrito":"COATZA_MINA"},"geometry":{"type":"Polygon","coordinates":[[[-94.41579,18.15686],[-94.42374,18.15541],[-94.44260000000001,18.15239],[-94.45159,18.15127],[-94.45393999999999,18.15138],[-94.45547,18.15129],[-94.45414,18.14392],[-94.45484,18.14382],[-94.45323,18.13984],[-94.45275,18.13878],[-94.45221,18.13824],[-94.45119,18.13318],[-94.45049000000002,18.12976],[-94.45038,18.12882],[-94.45026999999999,18.12799],[-94.45011301861264,18.12660516003978],[-94.44867064778843,18.12635288712992],[-94.44679079804595,18.12606741024109],[-94.44008781994009,18.12609435591819],[-94.43805218520338,18.12903862400844],[-94.437778185942,18.12912562555797],[-94.43753214847777,18.12914114543346],[-94.43726248163414,18.12901468483321],[-94.43714214351009,18.12885267840633],[-94.43526836733024,18.12665559629902],[-94.43452366158368,18.12598954446211],[-94.4316430480141,18.12475351210182],[-94.42973,18.12392],[-94.42898,18.12401],[-94.42859000000001,18.12412],[-94.428,18.12407],[-94.42771010757039,18.12403028819464],[-94.42745233449968,18.12383052029253],[-94.42717022572683,18.12366259163274],[-94.42694622551748,18.12331542386841],[-94.42677842330309,18.12293140373686],[-94.42664866659037,18.1226857452111],[-94.42652783622205,18.12251991000799],[-94.42614671609542,18.12224098092994],[-94.42262,18.12053],[-94.41804,18.12701],[-94.41651,18.13038],[-94.41458999999999,18.1348],[-94.41314000000001,18.13873],[-94.41332,18.13961],[-94.41243,18.1415],[-94.41164999999998,18.14357],[-94.41155,18.14436],[-94.41112,18.14549],[-94.41096999999999,18.1461],[-94.41085,18.14767],[-94.41083,18.14799],[-94.41102,18.14929],[-94.41144,18.15043],[-94.41185,18.15148],[-94.41272,18.1524],[-94.41308,18.15273],[-94.41385,18.15312],[-94.41437999999998,18.15343],[-94.41473,18.15366],[-94.41555,18.15448],[-94.41576999999998,18.155],[-94.41579,18.15686]]]}},{"type":"Feature","properties":{"name":"DIAZ ORDAZ_A","description":"<table><tr><td>Id</td><td><b>536153404</b></td></tr><tr><td>Nombre</td><td><b>DIAZ ORDAZ_A</b></td></tr><tr><td>Liberado</td><td><b>True</b></td></tr><tr><td>Fecha tentativa de instalacion</td><td /></tr><tr><td>Observaciones</td><td /></tr><tr><td>OLT</td><td /></tr></table>","distrito":"COATZA_MINA"},"geometry":{"type":"MultiPolygon","coordinates":[[[[-94.63957146,17.98174539],[-94.64155463,17.98207446],[-94.64089058999998,17.98302482],[-94.63953945999998,17.98482743],[-94.63939236999998,17.98506451],[-94.63928501,17.98527635],[-94.63915375,17.98559026],[-94.6390743,17.98585881],[-94.63888009,17.98850436],[-94.6388085,17.98888634],[-94.63859001999998,17.98966917],[-94.63850690000001,17.99000986],[-94.63852871,17.99039495],[-94.63622255,17.99022518],[-94.63611321,17.98999304],[-94.63549681,17.98993631],[-94.63558123,17.98922927],[-94.63499658,17.98911951],[-94.63485642,17.9899472],[-94.63440279,17.98990477],[-94.63262178,17.9899543],[-94.63258492,17.98489307],[-94.63259955747372,17.98288946933313],[-94.63335401198806,17.98287677502614],[-94.63340717373109,17.98184676940997],[-94.6325286292844,17.98179550511562],[-94.62925982999998,17.98180868],[-94.62929017,17.9811741],[-94.62673786,17.98116478],[-94.62646548,17.98118252],[-94.62593072,17.9819048],[-94.62593809,17.98206809],[-94.62610856,17.98207916],[-94.62654255,17.98153774],[-94.62661938,17.98152902],[-94.62658846,17.98225141],[-94.62674696,17.98232731],[-94.62685075,17.98244381],[-94.62874845,17.98250381],[-94.62880708,17.98260622],[-94.62919344,17.98260151],[-94.62924101,17.98307608],[-94.63247419999999,17.98300758],[-94.6325442,17.99041397],[-94.63125491,17.99053959],[-94.63079587,17.98987981],[-94.63054861,17.98945519],[-94.62993108999999,17.98966974],[-94.62824637,17.99036217],[-94.6275079,17.9905591],[-94.62741861,17.99092417],[-94.62712062,17.99179932],[-94.62582697,17.99189893],[-94.62573095,17.99286404],[-94.62671246,17.99297631],[-94.62794014,17.99322859],[-94.62810749,17.99375961],[-94.62821079,17.99385789],[-94.62810378,17.994246],[-94.62895618,17.99462992],[-94.62880852,17.9953284],[-94.62786932,17.99537967],[-94.62726421000002,17.99545689],[-94.62588652,17.99652006],[-94.62561137000002,17.99669869],[-94.62546869000002,17.99724047],[-94.62286395000001,17.99734177],[-94.62096978,17.99678239],[-94.62003533,17.99644347],[-94.61932005000001,17.99649463],[-94.61776884,17.99680296],[-94.61757140999998,17.99705854],[-94.61735201,17.99667827],[-94.61757775999999,17.99631071],[-94.61814961,17.9952389],[-94.61694024,17.99468905],[-94.61605401999999,17.99651829],[-94.61687155,17.99681355],[-94.61674621,17.99693551],[-94.61585013,17.99722494],[-94.61430571000001,17.9973122],[-94.61275139,17.99730481],[-94.61226986,17.99731931],[-94.61087657000002,17.99355978],[-94.61074932,17.99272056],[-94.61072829,17.99177058],[-94.61040361,17.99086377],[-94.61070578,17.99010444],[-94.61082054,17.9888268],[-94.6097683,17.98871916],[-94.60954364999999,17.98985626],[-94.60901394,17.99064874],[-94.6094798,17.99235289],[-94.60721386,17.99312164],[-94.60731934,17.9934812],[-94.60820761000001,17.99568051],[-94.60855792,17.99663625],[-94.60950147,17.99639401],[-94.60966374,17.99688434],[-94.61099145999998,17.99655542],[-94.61134111,17.99735604],[-94.61227582,17.99732594],[-94.61375584,17.99731632],[-94.61459765000001,17.99731602],[-94.61566195000002,17.9972434],[-94.6166058,17.9969812],[-94.61685531999998,17.99686413],[-94.61697549,17.9970077],[-94.61741835,17.9968309],[-94.61757146,17.99702572],[-94.61717583999999,17.99741513],[-94.61628080999999,17.99897879],[-94.61853432000001,17.99982661],[-94.6195632,17.99901168],[-94.6194625,17.99833222],[-94.61949205999998,17.99650484],[-94.62001172000001,17.99643022],[-94.62085600000002,17.99674186],[-94.62286856999998,17.9973417],[-94.62547333,17.99723606],[-94.62545943,17.99733305],[-94.62603218,17.99733401],[-94.62604244,17.99755976],[-94.62639939,17.99789218],[-94.62616005000001,17.99856666],[-94.62638919,17.99935815],[-94.62667801000002,17.99954989],[-94.62646254,17.99993709],[-94.62672835000001,18.00065203],[-94.62762651,18.00024465],[-94.62799315,18.00134141],[-94.62647464,18.00211754],[-94.62490492999999,18.00191792],[-94.62464473,18.00167443],[-94.62429115,18.00192585],[-94.62401411,18.00207369],[-94.62363991,18.00221743],[-94.62322795999998,18.00224147],[-94.62302647999998,18.00224547],[-94.62062049999999,18.00330705],[-94.62055331999998,18.00384755],[-94.62059521,18.00426437],[-94.62068331000002,18.00452777],[-94.62017545,18.00567831],[-94.62183238,18.00642919],[-94.62204232,18.00460111],[-94.62229144999999,18.00456491],[-94.62272376,18.00419373],[-94.62352847,18.00298191],[-94.62495743,18.0036679],[-94.6250253,18.00404843],[-94.62572199,18.00525113],[-94.62534712,18.00583742],[-94.62528413,18.00605259],[-94.62547305,18.00640087],[-94.62597246000001,18.00672416],[-94.62593891000002,18.00698319],[-94.62543938,18.00745422],[-94.62513722,18.00767984],[-94.62512458,18.00792464],[-94.62525891999998,18.00815528],[-94.62590518,18.00854249],[-94.62581292,18.00868738],[-94.62576245,18.00916569],[-94.62857791,18.00951495],[-94.62833739,18.01030519],[-94.63235352000001,18.01115623],[-94.63271442000001,18.01032992],[-94.63355884,18.01049806],[-94.63361381999998,18.01038198],[-94.63389511,18.00987904],[-94.63393283,18.00977123],[-94.63389091,18.00949183],[-94.63452008000002,18.00951082],[-94.63413396,18.00749756],[-94.63462078,18.00748412],[-94.63476354,18.0060939],[-94.63431438000002,18.00600215],[-94.63397026,18.00508697],[-94.63447388,18.00500321],[-94.63483166,18.00448964],[-94.63656917,18.00378313],[-94.63774594000002,18.00408218],[-94.63826207,18.00310427],[-94.63866267,18.00258074],[-94.63908152,18.00272842],[-94.63962718999998,18.00363452],[-94.64074012999998,18.00368234],[-94.6405034,18.00270268],[-94.64256414999998,18.00309377],[-94.64253666000002,18.00316565],[-94.64316629,18.00334522],[-94.64358177999999,18.00226249],[-94.64318304,18.00192572],[-94.64340958,18.0016503],[-94.64341373,18.00068129],[-94.64356644,18.00048049],[-94.643856,18.00033281],[-94.64470380999998,18.00049646],[-94.64501556,17.99989075],[-94.64503231,17.99948173],[-94.64581916,17.99905859],[-94.64689138,17.99813229],[-94.64706924000001,17.99849934],[-94.64795057,17.99810013],[-94.64855215,17.99755729],[-94.6483942,17.99613097],[-94.64804166,17.9962151],[-94.64802585,17.99578471],[-94.64781849,17.99547931],[-94.64720287,17.99512902],[-94.6467665,17.99485517],[-94.64471947,17.99431476],[-94.64478731,17.99385532],[-94.64486628,17.99318476],[-94.644694,17.992898],[-94.64402101,17.99318331],[-94.64376942,17.99271533],[-94.64142392999999,17.99204715],[-94.64043965999998,17.99183976],[-94.63943424,17.9915308],[-94.63931514999999,17.99139944],[-94.63929158,17.99095201],[-94.63931600000001,17.99053794],[-94.63944669,17.98997965],[-94.63956262,17.98973383],[-94.63983526,17.98976351],[-94.63997845,17.98930568],[-94.63877203999999,17.98930717],[-94.63894124,17.98870403],[-94.63899356,17.98825118],[-94.63905206000001,17.98758558],[-94.63920283000002,17.98577451],[-94.63927576,17.98552601],[-94.63938959,17.98526545],[-94.63955377,17.98500783],[-94.64014212,17.98415505],[-94.64152093,17.98226884],[-94.64185655,17.98174491],[-94.64200114999998,17.98146683],[-94.6415641,17.98137898],[-94.64170872999999,17.98067826],[-94.6415056,17.97953506],[-94.64132174,17.97858906],[-94.64079655,17.9784958],[-94.64106728,17.97706183],[-94.64071955,17.97700909],[-94.64090722999998,17.97607894],[-94.64061178,17.97553666],[-94.64016911999998,17.97480783],[-94.6392686,17.97428681],[-94.63864438,17.974209],[-94.63780796999998,17.97464851],[-94.63798916000002,17.9754224],[-94.63647382999999,17.9754411],[-94.63636600000001,17.97555373],[-94.6363207,17.97658646],[-94.63796568,17.97648042],[-94.63805578999998,17.97831748],[-94.64005916,17.97862438],[-94.63957146,17.98174539]]]]}},{"type":"Feature","properties":{"name":"Ampliacion Diaz Ordaz 2","description":"Ampliacion Diaz Ordaz 2","distrito":"COATZA_MINA"},"geometry":{"type":"Polygon","coordinates":[[[-94.59320132230874,17.99144357097584],[-94.59305750394,17.9919456842719],[-94.59276448784611,17.99291310551525],[-94.59324052777419,17.9936694417802],[-94.59346149183865,17.99360109605635],[-94.59409895225157,17.9936606279607],[-94.59439688484015,17.99376976256589],[-94.5945574187728,17.99368585974581],[-94.59460315694143,17.99372078201968],[-94.59585706204338,17.99365945212623],[-94.59648805176214,17.99382818744124],[-94.59652871121574,17.99337044052662],[-94.59703898875166,17.99348610605015],[-94.59728439490736,17.99145904032279],[-94.59834005989167,17.9914626444498],[-94.59830911100084,17.99103816669672],[-94.59808974486589,17.99104343241874],[-94.5981345982572,17.99053670431826],[-94.59766626958915,17.99054930340075],[-94.59776587830147,17.98988382484599],[-94.59866430283897,17.98973041127877],[-94.59877084901673,17.98921266234687],[-94.59856648625409,17.9891358484328],[-94.59860483623012,17.98884939840927],[-94.59826074550237,17.98875380369159],[-94.59857746126453,17.98841899547051],[-94.59761244197419,17.98748808318336],[-94.5980561470541,17.98703252128103],[-94.59803440990729,17.98692706157328],[-94.59736282222914,17.98581715879541],[-94.59657525228752,17.98652054634253],[-94.59638984692404,17.98502190168077],[-94.59600009329574,17.98340515491084],[-94.594688821606,17.98363123970535],[-94.59521715400003,17.98657621625918],[-94.59418791408187,17.98667829400683],[-94.59394791980674,17.98828035445144],[-94.59203268983521,17.98829624373503],[-94.5923510252917,17.98959043827405],[-94.59292581773013,17.99042460015385],[-94.59255865813832,17.99141952186279],[-94.59320132230874,17.99144357097584]]]}},{"type":"Feature","properties":{"name":"Ampliacion Diaz Ordaz 1","description":"Ampliacion Diaz Ordaz 1","distrito":"COATZA_MINA"},"geometry":{"type":"Polygon","coordinates":[[[-94.57677398837136,17.98726410873145],[-94.57661680486748,17.98788231530186],[-94.57641530741792,17.98794093236983],[-94.57630908313911,17.98839882625982],[-94.57797162411431,17.98854745795524],[-94.57801073414842,17.98830254209978],[-94.58698185224152,17.98930964432243],[-94.58743343362549,17.98532703943351],[-94.58756973085008,17.98412582803248],[-94.58728949432879,17.98419996431517],[-94.58669821484185,17.98531085665017],[-94.58606753729808,17.98507410279095],[-94.58644867476471,17.98411137092573],[-94.58782940987142,17.9805982160328],[-94.58813226442629,17.98063412564311],[-94.58837751268845,17.97836562674624],[-94.58313427444277,17.97762904170546],[-94.57978604244711,17.98448940773029],[-94.57802124322548,17.98448326372509],[-94.57799443639827,17.98652711658125],[-94.577529533945,17.98651519384391],[-94.5774723939463,17.98731181670179],[-94.57677398837136,17.98726410873145]]]}},{"type":"Feature","properties":{"name":"DIAZ ORDAZ","description":"DIAZ ORDAZ","distrito":"COATZA_MINA"},"geometry":{"type":"Polygon","coordinates":[[[-94.56866931118421,17.97930476796776],[-94.56865316495706,17.97949447805013],[-94.56876030904361,17.98097564695394],[-94.56892041763632,17.98299857478562],[-94.56898456012931,17.98412927194307],[-94.5689352310158,17.98567270775041],[-94.5687840297594,17.98719073724888],[-94.56825868765095,17.99107758581963],[-94.5673269747269,17.99210898681872],[-94.56646173737292,17.99323511367465],[-94.5484008584502,18.01199164890057],[-94.54782481617829,18.01269483667167],[-94.54746799216949,18.01315138137945],[-94.54646344429268,18.0141340397049],[-94.54612425997064,18.01444934635749],[-94.54588031231336,18.01478770367759],[-94.54571312076344,18.01510357335757],[-94.5456290284571,18.01534370399962],[-94.54554766498458,18.01584934009498],[-94.54558925206634,18.0161414428102],[-94.54571421142252,18.01687131429151],[-94.54581590730632,18.01713690538583],[-94.54586078648364,18.01722290803697],[-94.54599143096863,18.01743946790643],[-94.54608122305079,18.01762198529008],[-94.54625364304465,18.01793828147859],[-94.546415614182,18.01821679703622],[-94.54654303058615,18.01836760585656],[-94.54666050365164,18.01852618960973],[-94.54695447723302,18.01885331944436],[-94.54718354626054,18.01901575150343],[-94.54732080414097,18.01909522925328],[-94.54746510418208,18.01916971210251],[-94.54770848561533,18.01929157808258],[-94.54782171934804,18.0193369572302],[-94.54797432525645,18.0193824330099],[-94.54826192160063,18.01943385197276],[-94.54911542599599,18.01958223691516],[-94.54937279383525,18.01962963792304],[-94.54988501645728,18.01974910059382],[-94.55020328893852,18.01977313024137],[-94.55042530123531,18.01976950146386],[-94.55067603286895,18.01978068399711],[-94.5508513209591,18.01975435316143],[-94.5509620036662,18.01965238547559],[-94.5510665101134,18.01961340494929],[-94.55130649275316,18.01951525435785],[-94.55144250591829,18.01944104349414],[-94.55154900458442,18.01937566105337],[-94.55174005832916,18.01932685533227],[-94.55187219602351,18.01926916992175],[-94.55198811663435,18.0191991959592],[-94.55203607621196,18.01914741223028],[-94.55226242796,18.01913523339219],[-94.55234532433646,18.01912684569509],[-94.55251782069254,18.01914014418242],[-94.55265277898884,18.01915054867263],[-94.55279089074074,18.01924073406531],[-94.5532621458411,18.0203350297897],[-94.55811681350103,18.02122619574146],[-94.56222432460156,18.0190926555422],[-94.56245962328353,18.01914206660212],[-94.56315030265716,18.01881546128347],[-94.56409020318466,18.01821008802163],[-94.56472562758033,18.01790543500567],[-94.56516101946015,18.01760390141829],[-94.56571797585116,18.01736924270255],[-94.56578247630458,18.01701334818205],[-94.5681024922968,18.0158389025172],[-94.56870703493121,18.01585955514902],[-94.56999567031137,18.01538283685371],[-94.57393377660539,18.01345733426468],[-94.57505887451877,18.01293759053693],[-94.57542467243134,18.01279511797029],[-94.5763571364628,18.01270414670788],[-94.57689071594012,18.01291164177681],[-94.5775782265066,18.01337543538277],[-94.58278761739577,18.01100010964446],[-94.58437009926064,18.01029664607917],[-94.58446802611114,18.00873449338172],[-94.5844942256019,18.0083934557953],[-94.58395496255355,18.00736279450372],[-94.58370045825163,18.00698024707027],[-94.58838443580005,18.00570186158974],[-94.58875472612439,18.002818965219],[-94.58552956529924,18.00191987681041],[-94.58608757988803,17.99848679772051],[-94.58860465914098,17.99933639679151],[-94.58887497647191,17.99899129294207],[-94.58930507198359,17.99897859181973],[-94.59062908894693,17.99726899370107],[-94.59106629126708,17.99747942972848],[-94.59148138279852,17.99693143168856],[-94.59164121270544,17.99711361648394],[-94.59217702156299,17.99717697880705],[-94.59215906401033,17.99539522083898],[-94.59301293379468,17.99544375130225],[-94.5928313484201,17.99670052572932],[-94.59448864454087,17.99687217938533],[-94.59459536799571,17.99507374481268],[-94.59460781932327,17.99454049311137],[-94.59462727708359,17.99369843255923],[-94.59410015419526,17.99366577302999],[-94.59344623969601,17.99360338293065],[-94.59300326396591,17.99375550947634],[-94.59266914673273,17.99393946157485],[-94.59212774087571,17.99398082805553],[-94.59209948279879,17.99397447637539],[-94.5906426324752,17.99395548059177],[-94.59065751430731,17.99325289533557],[-94.59073193846993,17.99164709538612],[-94.58865443788484,17.99161277233627],[-94.58886467592416,17.99090379239894],[-94.58892744243485,17.99076941054086],[-94.58900639903788,17.99061547074871],[-94.58900743652073,17.99024816467161],[-94.58887852419083,17.99000003970998],[-94.5887135033391,17.98969539691971],[-94.58849451719605,17.98941220247097],[-94.58711847800863,17.98934011272574],[-94.58477120379216,17.98900907985327],[-94.57807145820968,17.98828153397759],[-94.5779660856259,17.98855381894371],[-94.57632066047464,17.9883453468516],[-94.57640978907672,17.98796156084443],[-94.57663716874453,17.98793440101498],[-94.57676317024777,17.98726064662461],[-94.57747359180775,17.9873151972707],[-94.57752805514377,17.98650522961539],[-94.57799762740059,17.98652047276578],[-94.57800023571095,17.98444461546599],[-94.57833935754329,17.98237440788672],[-94.57805198739173,17.98225459944972],[-94.57819844253933,17.97984724364373],[-94.57854492422784,17.97990732724767],[-94.57914985306887,17.97458465641498],[-94.57874325863142,17.97440767007186],[-94.57770922776812,17.97470245884037],[-94.57756054748359,17.97616098895379],[-94.57754014981766,17.97618670534979],[-94.57718208050356,17.97616575739062],[-94.57720120797728,17.97695716993553],[-94.57598168653988,17.97716598245431],[-94.57595883145805,17.97739352787021],[-94.5756093194108,17.97738252322889],[-94.57547994133222,17.97747756958833],[-94.57437427734055,17.97743690203222],[-94.57415505422217,17.97738948038952],[-94.57420889409381,17.97673826670958],[-94.576521051285,17.97554271370029],[-94.57660047825372,17.97550956954077],[-94.57562673452502,17.97559501763282],[-94.57497336306244,17.97604477489829],[-94.57436339593863,17.97511078966671],[-94.57402116381355,17.97525259165764],[-94.57335213071086,17.97414190243032],[-94.57330358339648,17.97374201011479],[-94.57266368344261,17.97380618910801],[-94.57206672345262,17.97323506072509],[-94.57143128668106,17.97249335375399],[-94.5710369639231,17.97240033901236],[-94.57053369852179,17.97311892048882],[-94.57035745196313,17.97333412308903],[-94.5690581778206,17.97488196959465],[-94.56857693054297,17.97491261305667],[-94.56719699847525,17.97463537976104],[-94.56658040532152,17.97595915567476],[-94.56729440674329,17.97684488312722],[-94.56866931118421,17.97930476796776]]]}},{"type":"Feature","properties":{"name":"Expancion de mancha","description":"","distrito":"COATZA_MINA"},"geometry":{"type":"Polygon","coordinates":[[[-94.61306139112273,18.00505084126269],[-94.6136869883707,18.00365411867886],[-94.61352818959975,18.00354199475476],[-94.6133553324704,18.00352388553288],[-94.61330305608085,18.00353732118046],[-94.6132498473934,18.0035381988088],[-94.61319457860435,18.00349747779546],[-94.61312932925715,18.00349886846446],[-94.61290030862251,18.00428106184613],[-94.61235335057009,18.00415463773632],[-94.61149201591807,18.00391089619582],[-94.61121823958611,18.0047266220619],[-94.61122292755631,18.00492757018213],[-94.61306139112273,18.00505084126269]]]}},{"type":"Feature","properties":{"name":"MIGUEL ALEMAN","description":"","distrito":"COATZA_MINA"},"geometry":{"type":"Polygon","coordinates":[[[-94.54446106320907,17.9792696663416],[-94.54375868325997,17.97953757181987],[-94.541857909284,17.97948282470656],[-94.54101188821248,17.97942816961055],[-94.54022894353551,17.97913764686212],[-94.53978077124212,17.97999210063422],[-94.53991274543829,17.98073425329675],[-94.53880467270076,17.9818840093873],[-94.53836666659976,17.98158296217145],[-94.53748998717597,17.98343055102492],[-94.53707456685194,17.98372345544982],[-94.53614378578965,17.98345487734344],[-94.53579504146919,17.98445542076018],[-94.5357320460872,17.98491136026069],[-94.53561917894916,17.98562080228124],[-94.53510527184073,17.98606587331329],[-94.53447037658368,17.98557470754223],[-94.53378910486568,17.98589834618279],[-94.5310281963123,17.98898294058263],[-94.53089372792823,17.9894758871939],[-94.53102398553499,17.99007334389989],[-94.53120011041592,17.99096730900393],[-94.53111011284074,17.9910868367544],[-94.53102731783616,17.99170221304829],[-94.53087339056863,17.99185761524054],[-94.53069784300692,17.99170545219956],[-94.53023563864174,17.99093338173123],[-94.52944886282776,17.99158814374863],[-94.52968291711132,17.99196953173601],[-94.52937239126673,17.99220435361575],[-94.52934410338229,17.99239606927448],[-94.52901037038656,17.99235699621389],[-94.52924196159218,17.99282323688969],[-94.52783904530123,17.99395674976653],[-94.52764103125308,17.99488861827959],[-94.52768917620475,17.99515806801753],[-94.5275397661942,17.99696345673464],[-94.52745022204056,17.99876959929633],[-94.52719066534128,18.001696178771],[-94.52662498539601,18.00186805927153],[-94.52673783624675,18.0025942236012],[-94.5265475947749,18.00270224406215],[-94.52605914431346,18.00283602442909],[-94.52541332128608,18.00405056877617],[-94.52478291352679,18.0040914302012],[-94.5247014322791,18.00389660725867],[-94.52362291318308,18.00410557827335],[-94.52323376346882,18.00412829761733],[-94.52347304226909,18.00757140576437],[-94.52363262593849,18.00709590009646],[-94.52374571999702,18.00710193733638],[-94.5244212185713,18.00734419736773],[-94.52499965462702,18.00749135250793],[-94.5255879351885,18.00770686952442],[-94.52570617190612,18.00761830739015],[-94.52646505501068,18.00802450807553],[-94.52551861351706,18.01030894510737],[-94.5245890734193,18.01260599743201],[-94.52494348212836,18.01394101971467],[-94.52552578294457,18.01449383027609],[-94.52625794786377,18.01537578842821],[-94.5278443105716,18.01595605429723],[-94.5342387521503,18.01693074893737],[-94.53528811345454,18.01521318123896],[-94.53370162581892,18.01428481064671],[-94.53123667341016,18.01365822448987],[-94.53022582341723,18.01136313144703],[-94.53086828088857,18.01063221084249],[-94.5316128084774,18.011214613366],[-94.53206801050924,18.01102998864227],[-94.53431912881791,18.00732056137596],[-94.5367286787273,18.00346384662613],[-94.53716502339118,18.00253945154664],[-94.53847112460635,18.00367799501001],[-94.53830789399456,18.00409203699909],[-94.53972876554353,18.00475742793596],[-94.53890242500945,18.0061536639473],[-94.53865558326505,18.00641690257004],[-94.53841628426082,18.00770459180164],[-94.53823382975442,18.00786437354255],[-94.5378566039352,18.00789201034366],[-94.53735408894514,18.0084516214668],[-94.53933138795222,18.00905620722096],[-94.54050418678676,18.00954571365319],[-94.54187933127147,18.00950516728208],[-94.54318359608162,18.00959944530253],[-94.54393622185161,18.01011334527384],[-94.54492730015373,18.00894676764841],[-94.54837929399461,18.01201574178942],[-94.55473280654802,18.00511854369294],[-94.56308174325297,17.99647523929356],[-94.56729560573207,17.99229512025588],[-94.56830064763058,17.99152425116625],[-94.5689922610007,17.99132896880799],[-94.56845079342928,17.99105324487603],[-94.56902686619732,17.9841068934255],[-94.56897155607898,17.98415880313659],[-94.56866613028265,17.97973400626911],[-94.56865617829469,17.97946813492997],[-94.56866209726125,17.97929138233409],[-94.56795223757604,17.97803336121022],[-94.56727609294623,17.97683572250592],[-94.56656863938797,17.97596524530042],[-94.56716541820037,17.97457869061362],[-94.56753742516753,17.97376039542818],[-94.56824728896194,17.97347948380407],[-94.56780866785768,17.97270332204424],[-94.56651061053395,17.97206717026556],[-94.56647137671077,17.97196876623859],[-94.56521447927787,17.97254615873371],[-94.56451154718754,17.97292301233013],[-94.56287248425592,17.97336101880694],[-94.56233907183586,17.97389877950755],[-94.56240446935148,17.97404762151534],[-94.5643013823647,17.97725515163952],[-94.56431052410959,17.97722252175157],[-94.56428784411446,17.97730889517136],[-94.56460851656117,17.97773657661692],[-94.56489759136151,17.9783411331696],[-94.56482055988508,17.97841809280751],[-94.5639048952531,17.97889493896485],[-94.56279574274225,17.97952970697842],[-94.56238010774398,17.97977127788061],[-94.5617416925207,17.97858041682924],[-94.5600384095725,17.97919476391176],[-94.56000286178862,17.97972742237452],[-94.55964319576897,17.97965065301487],[-94.55959300584746,17.97982333591581],[-94.55929006692676,17.9798657764647],[-94.55912445253838,17.98003168788065],[-94.5586680355984,17.98019187125565],[-94.5586327940269,17.98008265183811],[-94.55834396310512,17.98010706573825],[-94.55827840001487,17.98000321965989],[-94.55790391417055,17.97988334141034],[-94.55690166136723,17.98027949467125],[-94.55687433815885,17.98088553471957],[-94.55676737385674,17.98112609620244],[-94.55617116536172,17.98069082374679],[-94.55031106006359,17.98127772519919],[-94.54956167969388,17.98002638490943],[-94.55313757067624,17.97881795464272],[-94.5528143866515,17.97803376519133],[-94.55331156000872,17.97791200384364],[-94.55275567122274,17.9769334815785],[-94.5522035095731,17.97603622233351],[-94.55314187594179,17.97505531733429],[-94.55093874534194,17.97380677536775],[-94.54909255325674,17.97615495793484],[-94.54735255751285,17.97753320172506],[-94.54529496226908,17.97900594839719],[-94.54446106320907,17.9792696663416]]]}},{"type":"Feature","properties":{"name":"EXP_MIGUEL_ALEMAN","description":"","distrito":"COATZA_MINA"},"geometry":{"type":"Polygon","coordinates":[[[-94.52965567393105,17.98994327451558],[-94.52701166891346,17.99150175030801],[-94.52658384448505,17.99128384497294],[-94.52618625614177,17.99070402303956],[-94.52544409786356,17.99106326324075],[-94.52369470748705,17.99048342177819],[-94.52368145398809,17.99065989162359],[-94.52244889892906,17.99067877406386],[-94.52238925197402,17.99136574934823],[-94.5229525196616,17.99162416169532],[-94.52290612561933,17.99212836074612],[-94.52321755337336,17.99343298317372],[-94.52417178800215,17.99381113443337],[-94.52452300729199,17.99316197476308],[-94.5252983119562,17.99354642526701],[-94.52516538582589,17.99404352485208],[-94.52599161937152,17.99435885276132],[-94.5264863051126,17.9941035833644],[-94.52713361567012,17.99461912125642],[-94.52699873445493,17.9947040004269],[-94.5251025095733,17.99685604404409],[-94.52434805218371,17.99562924584239],[-94.52297294555311,17.99692548387211],[-94.5225617395768,17.99818969929571],[-94.52120370092612,17.99775483033991],[-94.52049042942791,17.99769858687285],[-94.52050050263769,17.99848122762391],[-94.51939612784396,17.99880009337479],[-94.51935463732643,17.9992856374799],[-94.5189712441514,17.99945209267321],[-94.51969827107165,18.00057343783872],[-94.52020037978848,18.00053173000552],[-94.5197184265277,18.00263730310469],[-94.51982688579126,18.00384766283906],[-94.52062981937911,18.00504734700266],[-94.52208955629352,18.00697577994174],[-94.52279301895074,18.0091127298],[-94.52314983553002,18.01112550280498],[-94.52361742815587,18.01126593316627],[-94.52451571052993,18.01036487545355],[-94.5248356469405,18.01000210892719],[-94.52549887777779,18.01029733874385],[-94.5265155373114,18.00805052870868],[-94.525700098424,18.00762117508016],[-94.52552140433784,18.00769764844311],[-94.52451625376963,18.00736201411885],[-94.52530659573705,18.00408381343209],[-94.52550527423456,18.00405397765737],[-94.52554710392697,18.00372579813353],[-94.52628806845496,18.00274270532872],[-94.52654104094428,18.00274999430585],[-94.52677868096684,18.00255314783371],[-94.52663302707003,18.00183138296676],[-94.52715665681369,18.00161232962216],[-94.52767844652264,17.99593207949201],[-94.52769629181769,17.99543968883881],[-94.52765165416247,17.99491334231075],[-94.52773198260238,17.99442944218463],[-94.52782123874141,17.99408137310719],[-94.52823182679737,17.99330033450974],[-94.52843712410697,17.99315600911761],[-94.5290887247021,17.99293526695439],[-94.5292672447776,17.99278245028561],[-94.52907979181678,17.99241740296761],[-94.5293345397525,17.99237747986295],[-94.52936765603732,17.99219635044853],[-94.52964503409403,17.99199946529414],[-94.52942560315995,17.99158602309648],[-94.53025153184682,17.99091285748301],[-94.52965567393105,17.98994327451558]]]}}]}